DELTA 2 R/B(1)          
1 20453U 90008B   26064.71669425  .00080331  00000+0  95688-3 0  9992
2 20453  35.6041 200.9171 0086306 222.0016 137.4078 15.55380339925515
COSMOS 2058             
1 20465U 90010A   26064.94038745  .00004756  00000+0  28071-3 0  9997
2 20465  82.4670  51.1216 0009682 356.0267   4.0884 15.11279556941679
SL-14 R/B               
1 20466U 90010B   26064.97733263  .00000487  00000+0  56099-4 0  9997
2 20466  82.4991 270.8769 0018768 315.3173  44.6529 14.83564862927932
SL-14 R/B               
1 20511U 90018B   26064.92409445  .00000633  00000+0  76437-4 0  9994
2 20511  82.5195 226.6094 0017639 103.4699 256.8482 14.82139560922027
HST                     
1 20580U 90037B   26064.11414895  .00009931  00000+0  33044-3 0  9993
2 20580  28.4704  71.2101 0001765  80.6022 279.4773 15.29398003772613
SL-16 R/B               
1 20625U 90046B   26064.95052528 -.00000229  00000+0 -93291-4 0  9990
2 20625  70.9995 305.7678 0016195 304.5886  55.3708 14.15013791847861
COSMOS 2084             
1 20663U 90055A   26064.93630597  .00003163  00000+0  23137-3 0  9997
2 20663  62.7925 348.3787 0017703 189.0297 171.0488 15.05623123935750
SL-6 R/B(2)             
1 20666U 90055D   26064.91381671  .00002283  00000+0  17992-3 0  9998
2 20666  62.7820 266.6918 0024177 346.0712  13.9718 15.03571825937622
SL-8 R/B                
1 20775U 90078B   26064.94686448  .00017350  00000+0  51043-3 0  9993
2 20775  82.9000 254.6775 0363119  26.5696 335.3631 14.88912757808748
SL-8 R/B                
1 21088U 91006B   26064.72409359  .00000088  00000+0  72381-4 0  9992
2 21088  82.9465 172.9938 0023299  49.0675 121.7763 13.77493733763527
OKEAN-3                 
1 21397U 91039A   26064.75573370  .00004544  00000+0  31969-3 0  9996
2 21397  82.5195 340.6539 0014214 352.8041   7.2979 15.04770467864440
COSMOS 2151             
1 21422U 91042A   26064.94791722  .00002223  00000+0  17597-3 0  9996
2 21422  82.4928  87.2865 0014045  74.8770 285.4006 15.00087394862636
